     2.11           N: GPS NAV DATA                         RINEX VERSION / TYPE
teqc  2019Feb25     NGS Web             20240207 18:02:06UTCPGM / RUN BY / DATE
Linux 2.4.21-27.ELsmp|Opteron|gcc|Linux 64|=+               COMMENT
teqc  2019Feb25     CORS-ADM Account    20240107 15:45:11UTCCOMMENT
     2.10           N: GPS NAV DATA                         COMMENT
rvacn.e(1404.07)                        2024-01-07T12:57 UTCCOMMENT
This file contains the validated broadcast navigation       COMMENT
messages from the following files:                          COMMENT
abmf0030.24n, abpo0030.24n, albh0030.24n, alic0030.24n,     COMMENT
areq0030.24n, badg0030.24n, bake0030.24n, bogt0030.24n,     COMMENT
brew0030.24n, cas10030.24n, cedu0030.24n, chum0030.24n,     COMMENT
chur0030.24n, coco0030.24n, cro10030.24n, daej0030.24n,     COMMENT
darw0030.24n, dav10030.24n, dgar0030.24n, drao0030.24n,     COMMENT
dubo0030.24n, fair0030.24n, falk0030.24n, flin0030.24n,     COMMENT
glps0030.24n, glsv0030.24n, gode0030.24n, godz0030.24n,     COMMENT
gold0030.24n, harb0030.24n, hlfx0030.24n, hob20030.24n,     COMMENT
hofn0030.24n, holb0030.24n, hrao0030.24n, iisc0030.24n,     COMMENT
invk0030.24n, irkj0030.24n, jplm0030.24n, karr0030.24n,     COMMENT
kat10030.24n, kiri0030.24n, kiru0030.24n, kokb0030.24n,     COMMENT
kokv0030.24n, kour0030.24n, laut0030.24n, lmmf0030.24n,     COMMENT
mac10030.24n, mal20030.24n, mana0030.24n, mas10030.24n,     COMMENT
mat10030.24n, mate0030.24n, maui0030.24n, maw10030.24n,     COMMENT
mbar0030.24n, mcm40030.24n, mdo10030.24n, mdvj0030.24n,     COMMENT
mkea0030.24n, mobs0030.24n, mtka0030.24n, nano0030.24n,     COMMENT
naur0030.24n, nico0030.24n, nium0030.24n, nklg0030.24n,     COMMENT
nnor0030.24n, not10030.24n, nvsk0030.24n, pert0030.24n,     COMMENT
pie10030.24n, pimo0030.24n, pohn0030.24n, pol20030.24n,     COMMENT
polv0030.24n, reun0030.24n, sant0030.24n, sch20030.24n,     COMMENT
stjo0030.24n, suth0030.24n, sydn0030.24n, tow20030.24n,     COMMENT
twtf0030.24n, unbj0030.24n, vill0030.24n, whit0030.24n,     COMMENT
will0030.24n, wsrt0030.24n, yar20030.24n, yarr0030.24n,     COMMENT
yell0030.24n                                                COMMENT
    1.6764D-08 -7.4506D-09 -5.9605D-08  1.1921D-07          ION ALPHA
    1.3517D+05 -1.8022D+05  6.5536D+04  0.0000D+00          ION BETA
   -9.313225746155D-10-4.440892098501D-15   319488     2295 DELTA-UTC: A0,A1,T,W
                                                            END OF HEADER
 6 24  1  3  6  0  0.0 4.576053470373D-04-1.261923898710D-11 0.000000000000D+00
    1.800000000000D+01 1.943750000000D+01 3.845874481823D-09-2.587185261142D+00
    1.121312379837D-06 3.087045857683D-03 8.987262845039D-06 5.153541593552D+03
    2.808000000000D+05-1.862645149231D-08-1.619568305406D+00 4.842877388000D-08
    9.894869256336D-01 2.206250000000D+02-8.224498816531D-01-7.698534960597D-09
    1.189335254873D-10 1.000000000000D+00 2.295000000000D+03 0.000000000000D+00
    2.000000000000D+00 0.000000000000D+00 3.725290298462D-09 1.800000000000D+01
    2.736180000000D+05 4.000000000000D+00
 7 24  1  3  6  0  0.0-2.790382131934D-05-9.436007530894D-12 0.000000000000D+00
    7.000000000000D+00 1.025000000000D+01 4.515545233441D-09 2.797673704808D+00
    3.557652235031D-07 1.774864341132D-02 1.049041748047D-05 5.153688377380D+03
    2.808000000000D+05 7.264316082001D-08 1.510972942751D+00-1.899898052216D-07
    9.499031053800D-01 1.673750000000D+02-2.159469567490D+00-7.681391389355D-09
    7.536028191537D-11 1.000000000000D+00 2.295000000000D+03 0.000000000000D+00
    2.000000000000D+00 0.000000000000D+00-1.117587089539D-08 7.000000000000D+00
    2.755980000000D+05 4.000000000000D+00
 8 24  1  3  6  0  0.0-1.601963303983D-04-1.932676241267D-12 0.000000000000D+00
    4.300000000000D+01-3.375000000000D+00 4.722696719275D-09-6.623917468865D-01
   -1.732259988785D-07 9.126721881330D-03 6.616115570068D-06 5.153566257477D+03
    2.808000000000D+05 1.508742570877D-07-2.710246809184D+00 3.352761268616D-08
    9.556747341344D-01 2.456250000000D+02 2.929639043340D-01-8.293559745767D-09
   -2.189376910622D-10 1.000000000000D+00 2.295000000000D+03 0.000000000000D+00
    2.000000000000D+00 0.000000000000D+00 5.122274160385D-09 4.300000000000D+01
    2.736180000000D+05 4.000000000000D+00
10 24  1  3  6  0  0.0-6.783241406083D-05-1.477928890381D-12 0.000000000000D+00
    8.600000000000D+01-5.562500000000D+00 4.288750072227D-09 1.374627539715D+00
   -2.086162567139D-07 9.264268097468D-03 5.902722477913D-06 5.153688886642D+03
    2.808000000000D+05-1.359730958939D-07-5.846742180737D-01 1.769512891769D-07
    9.820919990909D-01 2.803437500000D+02-2.398772633114D+00-8.157839806773D-09
    9.500395729616D-11 1.000000000000D+00 2.295000000000D+03 0.000000000000D+00
    2.000000000000D+00 0.000000000000D+00 2.328306436539D-09 8.600000000000D+01
    2.736180000000D+05 4.000000000000D+00
11 24  1  3  6  0  0.0-5.256249569356D-04-1.443822839065D-11 0.000000000000D+00
    7.000000000000D+00 1.168750000000D+01 4.338394997280D-09-1.431170506979D+00
    7.040798664093D-07 1.279271556996D-03 8.527189493179D-06 5.153649991989D+03
    2.808000000000D+05 1.862645149231D-08-1.583240561902D+00 9.313225746155D-09
    9.658948685526D-01 2.178750000000D+02-2.490797358839D+00-8.012476608955D-09
    1.296482575132D-10 1.000000000000D+00 2.295000000000D+03 0.000000000000D+00
    2.000000000000D+00 0.000000000000D+00-8.381903171539D-09 2.630000000000D+02
    2.736180000000D+05 4.000000000000D+00
12 24  1  3  6  0  0.0-4.640184342861D-04-3.865352482535D-12 0.000000000000D+00
    5.600000000000D+01 3.940625000000D+01 4.505544816884D-09 2.109691500616D+00
    1.911073923111D-06 8.879370638169D-03 6.504356861115D-06 5.153730478287D+03
    2.808000000000D+05 8.009374141693D-08 2.626483486140D+00-1.341104507446D-07
    9.635885650343D-01 2.525625000000D+02 1.400682571526D+00-7.998904615055D-09
    5.000208278745D-11 1.000000000000D+00 2.295000000000D+03 0.000000000000D+00
    2.000000000000D+00 0.000000000000D+00-1.257285475731D-08 5.600000000000D+01
    2.736180000000D+05 4.000000000000D+00
13 24  1  3  6  0  0.0 6.121052429080D-04 3.751665644813D-12 0.000000000000D+00
    1.160000000000D+02-5.878125000000D+01 4.402683389435D-09-9.663482502720D-01
   -3.054738044739D-06 7.754924474284D-03 8.061528205872D-06 5.153660863876D+03
    2.808000000000D+05 1.024454832077D-07 6.025135590053D-01 1.657754182816D-07
    9.708714759397D-01 2.285312500000D+02 9.493731223441D-01-8.046763751438D-09
   -2.228664261384D-10 1.000000000000D+00 2.295000000000D+03 0.000000000000D+00
    2.000000000000D+00 0.000000000000D+00-1.117587089539D-08 1.160000000000D+02
    2.736180000000D+05 4.000000000000D+00
14 24  1  3  6  0  0.0 2.883728593588D-04 1.034550223267D-11 0.000000000000D+00
    1.620000000000D+02 4.365625000000D+01 5.024495004671D-09 2.095812631488D+00
    2.287328243256D-06 3.802890307270D-03 6.107613444328D-06 5.153680040359D+03
    2.808000000000D+05-5.029141902924D-08 2.584346511034D+00 3.725290298462D-08
    9.468891167039D-01 2.525937500000D+02-2.961465771199D+00-8.352847929644D-09
    5.821671067396D-11 1.000000000000D+00 2.295000000000D+03 0.000000000000D+00
    2.000000000000D+00 0.000000000000D+00-7.916241884232D-09 4.180000000000D+02
    2.736780000000D+05 4.000000000000D+00
15 24  1  3  6  0  0.0 1.133731566370D-04 3.865352482535D-12 0.000000000000D+00
    3.700000000000D+01-5.265625000000D+01 5.207002606845D-09-1.640231827245D+00
   -2.536922693253D-06 1.544448453933D-02 6.111338734627D-06 5.153587989807D+03
    2.808000000000D+05 3.371387720108D-07 3.147658924286D-01 2.309679985046D-07
    9.343957290127D-01 2.442812500000D+02 1.283380196954D+00-8.340347408947D-09
   -1.235765760318D-10 1.000000000000D+00 2.295000000000D+03 0.000000000000D+00
    2.000000000000D+00 0.000000000000D+00-1.024454832077D-08 3.700000000000D+01
    2.757180000000D+05 4.000000000000D+00
16 24  1  3  6  0  0.0-3.917766734958D-04 7.503331289627D-12 0.000000000000D+00
    1.010000000000D+02 4.062500000000D+01 4.618763818624D-09 3.547587533546D-01
    2.292916178703D-06 1.389573921915D-02 5.953013896942D-06 5.153708490372D+03
    2.808000000000D+05-9.685754776001D-08 2.644506816815D+00 2.477318048477D-07
    9.631671904995D-01 2.661875000000D+02 8.125935413141D-01-8.317489313958D-09
   -3.643008888800D-11 1.000000000000D+00 2.295000000000D+03 0.000000000000D+00
    2.000000000000D+00 0.000000000000D+00-1.024454832077D-08 1.010000000000D+02
    2.736180000000D+05 4.000000000000D+00
17 24  1  3  6  0  0.0 7.207444868982D-04-7.958078640513D-13 0.000000000000D+00
    4.800000000000D+01-4.031250000000D+00 4.427684430829D-09-5.985651284802D-01
   -3.594905138016D-07 1.372506143525D-02 7.640570402145D-06 5.153644180298D+03
    2.808000000000D+05-1.806765794754D-07-2.617834519887D+00 4.097819328308D-08
    9.713540311715D-01 2.429687500000D+02-1.351270845672D+00-8.271773123981D-09
   -1.471489864888D-10 1.000000000000D+00 2.295000000000D+03 0.000000000000D+00
    2.000000000000D+00 0.000000000000D+00-1.117587089539D-08 4.800000000000D+01
    2.736180000000D+05 4.000000000000D+00
18 24  1  3  6  0  0.0-5.226954817772D-04-9.549694368616D-12 0.000000000000D+00
    2.140000000000D+02 1.340625000000D+01 4.155173079637D-09-2.699373364810D+00
    7.431954145432D-07 3.827284788713D-03 8.204951882362D-06 5.153638143539D+03
    2.808000000000D+05-4.656612873077D-08-1.613426352107D+00-2.980232238770D-08
    9.742637254919D-01 2.325937500000D+02-3.017499220189D+00-7.862827518327D-09
    1.185763677531D-10 1.000000000000D+00 2.295000000000D+03 0.000000000000D+00
    2.000000000000D+00 0.000000000000D+00-8.381903171539D-09 7.260000000000D+02
    2.757380000000D+05 4.000000000000D+00
